{
"type": "FeatureCollection",
"name": "forli_schools_exposed_mph",
"crs": { "type": "name", "properties": { "name": "urn:ogc:def:crs:OGC:1.3:CRS84" } },
"features": [
{ "type": "Feature", "properties": { "fid": 1, "full_id": "n299421682", "osm_id": "299421682", "osm_type": "node", "amenity": "school", "operator": null, "full_name": null, "education": null, "religion": null, "website": null, "phone": null, "fax": null, "addr:street": null, "addr:postcode": null, "addr:housenumber": null, "addr:city": null, "wikipedia": null, "wikidata": null, "isced:level": null, "check_date": null, "name": "Scuola Elementare \"Alessandro Manzoni\"" }, "geometry": { "type": "Point", "coordinates": [ 12.0488583, 44.2282815 ] } },
{ "type": "Feature", "properties": { "fid": 2, "full_id": "n315012239", "osm_id": "315012239", "osm_type": "node", "amenity": "school", "operator": null, "full_name": null, "education": null, "religion": null, "website": null, "phone": null, "fax": null, "addr:street": null, "addr:postcode": null, "addr:housenumber": null, "addr:city": null, "wikipedia": "it:Liceo ginnasio Giovan Battista Morgagni", "wikidata": "Q3831889", "isced:level": "3", "check_date": "2024-09-13", "name": "Liceo Classico Statale \"Giovan Battista Morgagni\"" }, "geometry": { "type": "Point", "coordinates": [ 12.0517635, 44.217579500000035 ] } },
{ "type": "Feature", "properties": { "fid": 3, "full_id": "n315012242", "osm_id": "315012242", "osm_type": "node", "amenity": "school", "operator": null, "full_name": null, "education": null, "religion": null, "website": "https://www.ittmarconiforli.edu.it/", "phone": "+39 0543 28620", "fax": "+39 0543 26363", "addr:street": "Viale della Libertà", "addr:postcode": "47122", "addr:housenumber": "14", "addr:city": "Forlì", "wikipedia": null, "wikidata": null, "isced:level": "3", "check_date": null, "name": "Istituto Tecnico Industriale Statale \"Guglielmo Marconi\"" }, "geometry": { "type": "Point", "coordinates": [ 12.0522332, 44.220289200000025 ] } },
{ "type": "Feature", "properties": { "fid": 4, "full_id": "n632830293", "osm_id": "632830293", "osm_type": "node", "amenity": "school", "operator": null, "full_name": null, "education": null, "religion": null, "website": null, "phone": null, "fax": null, "addr:street": null, "addr:postcode": null, "addr:housenumber": null, "addr:city": null, "wikipedia": null, "wikidata": null, "isced:level": null, "check_date": null, "name": null }, "geometry": { "type": "Point", "coordinates": [ 12.0195097, 44.295010499999975 ] } },
{ "type": "Feature", "properties": { "fid": 5, "full_id": "n759453065", "osm_id": "759453065", "osm_type": "node", "amenity": "school", "operator": null, "full_name": null, "education": null, "religion": null, "website": null, "phone": null, "fax": null, "addr:street": null, "addr:postcode": null, "addr:housenumber": null, "addr:city": null, "wikipedia": null, "wikidata": null, "isced:level": null, "check_date": null, "name": "Istituto \"Ivo Oliveti\"" }, "geometry": { "type": "Point", "coordinates": [ 12.0542442, 44.219636299999962 ] } },
{ "type": "Feature", "properties": { "fid": 6, "full_id": "n1149435363", "osm_id": "1149435363", "osm_type": "node", "amenity": "school", "operator": null, "full_name": null, "education": null, "religion": null, "website": null, "phone": null, "fax": null, "addr:street": null, "addr:postcode": null, "addr:housenumber": null, "addr:city": null, "wikipedia": null, "wikidata": null, "isced:level": null, "check_date": null, "name": null }, "geometry": { "type": "Point", "coordinates": [ 12.0434751, 44.225939200000013 ] } },
{ "type": "Feature", "properties": { "fid": 7, "full_id": "n1233927818", "osm_id": "1233927818", "osm_type": "node", "amenity": "school", "operator": null, "full_name": null, "education": null, "religion": null, "website": null, "phone": null, "fax": null, "addr:street": null, "addr:postcode": null, "addr:housenumber": null, "addr:city": null, "wikipedia": null, "wikidata": null, "isced:level": null, "check_date": null, "name": "Scuola \"Diego Fabbri\"" }, "geometry": { "type": "Point", "coordinates": [ 12.0383062, 44.222025200000026 ] } },
{ "type": "Feature", "properties": { "fid": 8, "full_id": "n1293814599", "osm_id": "1293814599", "osm_type": "node", "amenity": "school", "operator": null, "full_name": null, "education": null, "religion": null, "website": null, "phone": null, "fax": null, "addr:street": null, "addr:postcode": null, "addr:housenumber": null, "addr:city": null, "wikipedia": null, "wikidata": null, "isced:level": null, "check_date": "2024-08-23", "name": "Scuola elementare \"Aurelio Saffi\"" }, "geometry": { "type": "Point", "coordinates": [ 12.0511407, 44.212611700000011 ] } },
{ "type": "Feature", "properties": { "fid": 9, "full_id": "n1322874842", "osm_id": "1322874842", "osm_type": "node", "amenity": "school", "operator": null, "full_name": null, "education": null, "religion": null, "website": null, "phone": null, "fax": null, "addr:street": null, "addr:postcode": null, "addr:housenumber": null, "addr:city": null, "wikipedia": null, "wikidata": null, "isced:level": null, "check_date": null, "name": null }, "geometry": { "type": "Point", "coordinates": [ 12.023892, 44.2243385 ] } },
{ "type": "Feature", "properties": { "fid": 10, "full_id": "n3215796106", "osm_id": "3215796106", "osm_type": "node", "amenity": "school", "operator": null, "full_name": null, "education": null, "religion": null, "website": "https://www.enaip.forli-cesena.it/", "phone": null, "fax": null, "addr:street": null, "addr:postcode": null, "addr:housenumber": null, "addr:city": null, "wikipedia": null, "wikidata": null, "isced:level": null, "check_date": null, "name": "Enaip Forlì" }, "geometry": { "type": "Point", "coordinates": [ 12.0501596, 44.207754700000052 ] } },
{ "type": "Feature", "properties": { "fid": 11, "full_id": "n3845830316", "osm_id": "3845830316", "osm_type": "node", "amenity": "school", "operator": null, "full_name": null, "education": null, "religion": null, "website": null, "phone": null, "fax": null, "addr:street": "Via Gorizia", "addr:postcode": "47121", "addr:housenumber": "210", "addr:city": "Forlì", "wikipedia": null, "wikidata": null, "isced:level": null, "check_date": null, "name": "Accademia InArte" }, "geometry": { "type": "Point", "coordinates": [ 12.0371042, 44.233294 ] } },
{ "type": "Feature", "properties": { "fid": 12, "full_id": "n3845833120", "osm_id": "3845833120", "osm_type": "node", "amenity": "school", "operator": null, "full_name": null, "education": null, "religion": null, "website": null, "phone": null, "fax": null, "addr:street": "Corso Giuseppe Garibaldi", "addr:postcode": "47121", "addr:housenumber": "98", "addr:city": "Forlì", "wikipedia": null, "wikidata": null, "isced:level": null, "check_date": null, "name": "Istituto Musicale Angelo Masini" }, "geometry": { "type": "Point", "coordinates": [ 12.0349227, 44.224324400000029 ] } },
{ "type": "Feature", "properties": { "fid": 13, "full_id": "n4766301479", "osm_id": "4766301479", "osm_type": "node", "amenity": "school", "operator": null, "full_name": null, "education": null, "religion": null, "website": null, "phone": null, "fax": null, "addr:street": "Corso Armando Diaz", "addr:postcode": "47121", "addr:housenumber": "103", "addr:city": "Forlì", "wikipedia": null, "wikidata": null, "isced:level": null, "check_date": null, "name": "Istituto Madre Clelia Merloni" }, "geometry": { "type": "Point", "coordinates": [ 12.0389201, 44.2191898 ] } },
{ "type": "Feature", "properties": { "fid": 14, "full_id": "n4766375983", "osm_id": "4766375983", "osm_type": "node", "amenity": "school", "operator": null, "full_name": null, "education": null, "religion": "none", "website": "https://www.ic2forli.edu.it/categorie02.asp?id_categoria=30&id_sottocategoria=253", "phone": null, "fax": null, "addr:street": "Viale della Libertà", "addr:postcode": "47122", "addr:housenumber": "23", "addr:city": "Forlì", "wikipedia": null, "wikidata": null, "isced:level": null, "check_date": "2024-11-20", "name": "Scuola Elementare \"De Amicis\"" }, "geometry": { "type": "Point", "coordinates": [ 12.0516744, 44.220522199999984 ] } },
{ "type": "Feature", "properties": { "fid": 15, "full_id": "n4766415068", "osm_id": "4766415068", "osm_type": "node", "amenity": "school", "operator": null, "full_name": "Istituto tecnico \"G. Saffi\" - sede succursale", "education": "school", "religion": "none", "website": null, "phone": null, "fax": null, "addr:street": "Piazza Camillo Benso di Cavour", "addr:postcode": "47121", "addr:housenumber": "15", "addr:city": "Forlì", "wikipedia": null, "wikidata": null, "isced:level": "3", "check_date": null, "name": "Istituto tecnico \"G. Saffi\"" }, "geometry": { "type": "Point", "coordinates": [ 12.0397251, 44.225097 ] } },
{ "type": "Feature", "properties": { "fid": 16, "full_id": "n7397354502", "osm_id": "7397354502", "osm_type": "node", "amenity": "school", "operator": "Istituto Tecnico Commerciale \"Matteucci\"", "full_name": null, "education": null, "religion": null, "website": null, "phone": null, "fax": null, "addr:street": null, "addr:postcode": null, "addr:housenumber": null, "addr:city": null, "wikipedia": null, "wikidata": null, "isced:level": null, "check_date": null, "name": "Istituto Tecnico Commerciale \"Matteucci\"" }, "geometry": { "type": "Point", "coordinates": [ 12.038896, 44.2107014 ] } },
{ "type": "Feature", "properties": { "fid": 17, "full_id": "n7397354503", "osm_id": "7397354503", "osm_type": "node", "amenity": "school", "operator": null, "full_name": null, "education": null, "religion": null, "website": null, "phone": null, "fax": null, "addr:street": null, "addr:postcode": null, "addr:housenumber": null, "addr:city": null, "wikipedia": null, "wikidata": null, "isced:level": null, "check_date": null, "name": "Istituto Tecnico per Geometri \" L. B. Alberti\"" }, "geometry": { "type": "Point", "coordinates": [ 12.0395535, 44.211847400000039 ] } },
{ "type": "Feature", "properties": { "fid": 18, "full_id": "n7397354504", "osm_id": "7397354504", "osm_type": "node", "amenity": "school", "operator": null, "full_name": null, "education": null, "religion": null, "website": null, "phone": null, "fax": null, "addr:street": null, "addr:postcode": null, "addr:housenumber": null, "addr:city": null, "wikipedia": null, "wikidata": "Q24940628", "isced:level": null, "check_date": null, "name": "Liceo Scientifico \"Fulceri Paulucci di Calboli\"" }, "geometry": { "type": "Point", "coordinates": [ 12.0408489, 44.210119200000022 ] } }
]
}
