{
"type": "FeatureCollection",
"name": "forli_boundary",
"crs": { "type": "name", "properties": { "name": "urn:ogc:def:crs:OGC:1.3:CRS84" } },
"features": [
{ "type": "Feature", "properties": { "fid": 1, "full_id": "r42907", "osm_id": "42907", "osm_type": "relation", "boundary": "administrative", "ref": null, "website": null, "ref:catasto": "D704", "postal_code": "47121-47122", "name:la": "Forum Livii", "name:it": "Forlì", "wikipedia": "it:Forlì", "wikidata": "Q13367", "type": "boundary", "short_name": null, "ref:nuts:3": null, "ref:nuts": null, "ref:ISTAT": "040012", "official_name": null, "name:ru": null, "name:ko": null, "name:ca": null, "name": "Forlì", "admin_level": "8", "ISO3166-2": null }, "geometry": { "type": "MultiPolygon", "coordinates": [ [ [ [ 12.08161, 44.144255600000015 ], [ 12.0833848, 44.14785710000001 ], [ 12.0845773, 44.150507400000031 ], [ 12.0846221, 44.150528700000059 ], [ 12.0878686, 44.157827700000034 ], [ 12.0876896, 44.158965 ], [ 12.0876808, 44.159021200000019 ], [ 12.087928, 44.159923700000022 ], [ 12.0883628, 44.160587200000037 ], [ 12.0892889, 44.161318299999984 ], [ 12.0902505, 44.162012500000024 ], [ 12.0915196, 44.162365200000025 ], [ 12.092823, 44.1624199 ], [ 12.0937607, 44.162403400000031 ], [ 12.0947003, 44.162207 ], [ 12.0952897, 44.162055200000047 ], [ 12.0954036, 44.162025900000039 ], [ 12.0956812, 44.162072400000064 ], [ 12.0958991, 44.16217450000002 ], [ 12.0961472, 44.16237480000003 ], [ 12.0963913, 44.162737300000032 ], [ 12.0965068, 44.163031300000014 ], [ 12.0965463, 44.163199800000037 ], [ 12.0966033, 44.163442800000034 ], [ 12.09672, 44.1639978 ], [ 12.0966469, 44.164512900000048 ], [ 12.0934333, 44.1707398 ], [ 12.0898232, 44.175119 ], [ 12.0895613, 44.175391 ], [ 12.0893164, 44.17583340000003 ], [ 12.0892527, 44.1759485 ], [ 12.0892543, 44.1766956 ], [ 12.0897355, 44.178006 ], [ 12.0923479, 44.184183 ], [ 12.0923871, 44.184269800000017 ], [ 12.0924222, 44.1843475 ], [ 12.092785, 44.1851254 ], [ 12.0935748, 44.186112300000055 ], [ 12.1098941, 44.2064106 ], [ 12.1167126, 44.2088408 ], [ 12.1332129, 44.214721300000022 ], [ 12.1437313, 44.215035200000017 ], [ 12.1481895, 44.2146062 ], [ 12.1580095, 44.213912200000046 ], [ 12.1585903, 44.2139333 ], [ 12.1587056, 44.213937500000036 ], [ 12.1708417, 44.216636099999988 ], [ 12.1708776, 44.216840900000037 ], [ 12.1711037, 44.217320700000016 ], [ 12.1711583, 44.217436 ], [ 12.171386, 44.217916 ], [ 12.1718135, 44.218417300000041 ], [ 12.1740304, 44.220768300000067 ], [ 12.1755745, 44.221778700000037 ], [ 12.1817754, 44.225342 ], [ 12.1822347, 44.2255002 ], [ 12.1824637, 44.225336300000052 ], [ 12.1826005, 44.2252259 ], [ 12.1826196, 44.225210400000016 ], [ 12.1829685, 44.224714500000026 ], [ 12.1844961, 44.224023700000046 ], [ 12.1887046, 44.221574700000019 ], [ 12.1901691, 44.2225707 ], [ 12.1915512, 44.223506600000015 ], [ 12.1935324, 44.224004900000025 ], [ 12.1942897, 44.224761 ], [ 12.1958278, 44.226161800000057 ], [ 12.2006824, 44.230305600000044 ], [ 12.2050148, 44.233478100000035 ], [ 12.2089395, 44.2365726 ], [ 12.2101788, 44.2377171 ], [ 12.2106565, 44.238441900000048 ], [ 12.2109474, 44.238955800000014 ], [ 12.2106903, 44.246257500000048 ], [ 12.2118671, 44.249174700000033 ], [ 12.2106274, 44.254467100000035 ], [ 12.2104912, 44.254957 ], [ 12.2099349, 44.256242 ], [ 12.2097885, 44.256543200000053 ], [ 12.2060474, 44.257080500000043 ], [ 12.2053961, 44.2570808 ], [ 12.2031817, 44.256899900000036 ], [ 12.2026395, 44.256834100000034 ], [ 12.1898955, 44.255207200000036 ], [ 12.1878149, 44.253936300000021 ], [ 12.1804067, 44.2474518 ], [ 12.177762, 44.2486123 ], [ 12.1769198, 44.245553500000021 ], [ 12.1763798, 44.244552100000057 ], [ 12.1756532, 44.242487900000043 ], [ 12.1754052, 44.242494399999984 ], [ 12.1744883, 44.242657 ], [ 12.1709351, 44.243254500000027 ], [ 12.1713938, 44.2443017 ], [ 12.1670486, 44.245408400000038 ], [ 12.1649029, 44.246115500000045 ], [ 12.1651818, 44.246668800000052 ], [ 12.166083, 44.247214500000041 ], [ 12.1641895, 44.248488600000037 ], [ 12.1649619, 44.249182 ], [ 12.1621509, 44.250619100000051 ], [ 12.1593614, 44.251426 ], [ 12.1551128, 44.252248300000019 ], [ 12.1521516, 44.252501899999984 ], [ 12.1506576, 44.2527214 ], [ 12.1494936, 44.2529437 ], [ 12.1464912, 44.2537526 ], [ 12.142375, 44.255710200000053 ], [ 12.1367383, 44.258647400000015 ], [ 12.1367625, 44.258814599999987 ], [ 12.1321357, 44.2603648 ], [ 12.131911, 44.260247600000014 ], [ 12.1113432, 44.268439 ], [ 12.1061001, 44.270602800000034 ], [ 12.1053747, 44.2709002 ], [ 12.1047328, 44.271167100000035 ], [ 12.1031911, 44.271803300000059 ], [ 12.1028855, 44.271821300000028 ], [ 12.1032494, 44.273076400000029 ], [ 12.1038544, 44.2749342 ], [ 12.1059001, 44.279618700000043 ], [ 12.1062655, 44.280354 ], [ 12.1066373, 44.281612200000033 ], [ 12.1069276, 44.283516600000013 ], [ 12.1080683, 44.28835 ], [ 12.1068837, 44.288826 ], [ 12.105037, 44.290085699999985 ], [ 12.1042628, 44.290434100000013 ], [ 12.0989306, 44.292085200000066 ], [ 12.0982332, 44.292814800000066 ], [ 12.0967955, 44.293697900000033 ], [ 12.0966775, 44.294174 ], [ 12.0975405, 44.29491 ], [ 12.0971859, 44.295952 ], [ 12.0924665, 44.297859700000032 ], [ 12.0907271, 44.298470600000037 ], [ 12.0875865, 44.2998062 ], [ 12.0869795, 44.3000044 ], [ 12.0861337, 44.30008510000004 ], [ 12.0852009, 44.300101600000033 ], [ 12.0820916, 44.30004820000002 ], [ 12.0762816, 44.2991751 ], [ 12.0770144, 44.297802300000015 ], [ 12.0738656, 44.298564 ], [ 12.0737858, 44.2983699 ], [ 12.0678021, 44.300082100000054 ], [ 12.0666556, 44.301687800000046 ], [ 12.0637051, 44.301925800000042 ], [ 12.0545924, 44.305510500000025 ], [ 12.0558949, 44.307221100000021 ], [ 12.0564222, 44.30829740000005 ], [ 12.0528851, 44.309711100000044 ], [ 12.0502994, 44.311039200000032 ], [ 12.0487545, 44.311553600000011 ], [ 12.048293, 44.315076200000036 ], [ 12.0469628, 44.315961900000019 ], [ 12.0476636, 44.317186 ], [ 12.0477996, 44.317710200000057 ], [ 12.0481644, 44.318216900000067 ], [ 12.0482322, 44.318554300000031 ], [ 12.0484961, 44.318967600000015 ], [ 12.0489373, 44.319199300000015 ], [ 12.0480035, 44.319363700000046 ], [ 12.0498255, 44.324131600000044 ], [ 12.0496214, 44.324838500000048 ], [ 12.0494824, 44.32530140000005 ], [ 12.0491763, 44.325687700000039 ], [ 12.0469467, 44.326790500000037 ], [ 12.0440631, 44.327492900000045 ], [ 12.0441228, 44.327671 ], [ 12.0397396, 44.3287476 ], [ 12.0393212, 44.328793700000027 ], [ 12.0388679, 44.328805200000026 ], [ 12.0386426, 44.328774500000037 ], [ 12.0350701, 44.3306793 ], [ 12.0340449, 44.3306301 ], [ 12.0330475, 44.330639400000045 ], [ 12.0324037, 44.3306164 ], [ 12.0317815, 44.330424500000035 ], [ 12.0301558, 44.329050300000013 ], [ 12.028698, 44.3232317 ], [ 12.0282232, 44.322533100000051 ], [ 12.0225184, 44.315473400000037 ], [ 12.0121878, 44.303494200000024 ], [ 12.0114156, 44.302857500000016 ], [ 12.0105005, 44.302368500000028 ], [ 12.0091664, 44.301773500000039 ], [ 12.0074758, 44.3010708 ], [ 12.0064709, 44.30053920000006 ], [ 12.0061429, 44.300313200000019 ], [ 12.0061102, 44.300290600000011 ], [ 12.0053534, 44.299767400000015 ], [ 12.0036629, 44.2983265 ], [ 12.0026227, 44.297102500000037 ], [ 12.0019061, 44.296077100000034 ], [ 12.001726, 44.295802700000046 ], [ 12.0014577, 44.295395700000022 ], [ 12.0010571, 44.294668 ], [ 11.9995221, 44.2911074 ], [ 11.9994999, 44.29108 ], [ 11.9993592, 44.290795899999985 ], [ 11.9990936, 44.2902255 ], [ 11.9936913, 44.27897210000004 ], [ 11.9936902, 44.2789945 ], [ 11.9933272, 44.278324700000063 ], [ 11.9930576, 44.2778455 ], [ 11.9924072, 44.276881200000012 ], [ 11.978023, 44.257803100000011 ], [ 11.977452, 44.2571609 ], [ 11.9772777, 44.2570124 ], [ 11.9772667, 44.257002900000039 ], [ 11.9768368, 44.256636700000037 ], [ 11.9759918, 44.256186800000016 ], [ 11.9713407, 44.253710100000056 ], [ 11.9652303, 44.249763900000019 ], [ 11.9582397, 44.242734300000038 ], [ 11.9567347, 44.2414409 ], [ 11.9557147, 44.240828200000024 ], [ 11.9484683, 44.2368249 ], [ 11.9476608, 44.2367017 ], [ 11.9444057, 44.236713700000045 ], [ 11.9433611, 44.236857700000023 ], [ 11.9412825, 44.237139 ], [ 11.9411233, 44.237181 ], [ 11.9380688, 44.237700800000034 ], [ 11.9369535, 44.238170600000032 ], [ 11.9362947, 44.23852060000003 ], [ 11.9348432, 44.239800300000027 ], [ 11.9344417, 44.240287800000033 ], [ 11.9343026, 44.240764 ], [ 11.9336228, 44.2414477 ], [ 11.9332874, 44.241753400000036 ], [ 11.932801, 44.242044900000046 ], [ 11.9315591, 44.242491 ], [ 11.9289815, 44.242534600000013 ], [ 11.9281681, 44.2425465 ], [ 11.9276697, 44.242343200000036 ], [ 11.927223, 44.241922600000045 ], [ 11.9267196, 44.241368300000026 ], [ 11.9265246, 44.240986200000044 ], [ 11.9265276, 44.230714200000016 ], [ 11.9286213, 44.22599270000002 ], [ 11.9305047, 44.220317800000039 ], [ 11.9294462, 44.216915 ], [ 11.9292663, 44.2165685 ], [ 11.9285498, 44.216279100000044 ], [ 11.9224861, 44.211849400000027 ], [ 11.9239119, 44.2075457 ], [ 11.9241487, 44.206947300000067 ], [ 11.9241566, 44.206927299999975 ], [ 11.9350849, 44.203216900000037 ], [ 11.9365005, 44.192701400000011 ], [ 11.9378823, 44.191315400000029 ], [ 11.9383831, 44.19107760000005 ], [ 11.9391086, 44.19106780000002 ], [ 11.9399392, 44.191163500000037 ], [ 11.9406301, 44.1914697 ], [ 11.9412114, 44.191837400000011 ], [ 11.941799, 44.192330900000037 ], [ 11.9430524, 44.193865 ], [ 11.9435935, 44.19467930000004 ], [ 11.9457964, 44.198205500000014 ], [ 11.9494821, 44.204106 ], [ 11.9496091, 44.204642900000046 ], [ 11.9501786, 44.206743800000019 ], [ 11.9505548, 44.207760299999983 ], [ 11.9507956, 44.208321300000037 ], [ 11.9513078, 44.2086035 ], [ 11.9527337, 44.208784300000019 ], [ 11.9534864, 44.208827500000019 ], [ 11.9574954, 44.208822500000025 ], [ 11.9580255, 44.208737299999989 ], [ 11.9594774, 44.208240500000045 ], [ 11.9633282, 44.20666420000002 ], [ 11.9636236, 44.206314400000011 ], [ 11.9674102, 44.2007245 ], [ 11.9664177, 44.199411300000037 ], [ 11.9663823, 44.198916 ], [ 11.9664266, 44.198293700000029 ], [ 11.9664354, 44.19796980000001 ], [ 11.966648, 44.197645900000026 ], [ 11.966834, 44.197245900000041 ], [ 11.9671263, 44.196814 ], [ 11.9677274, 44.195893800000036 ], [ 11.9680273, 44.195375800000029 ], [ 11.9698296, 44.194378800000024 ], [ 11.9695588, 44.193958600000016 ], [ 11.9709251, 44.192755 ], [ 11.9706523, 44.192573200000012 ], [ 11.9701791, 44.192339500000031 ], [ 11.9695235, 44.1918209 ], [ 11.9694254, 44.191632500000026 ], [ 11.969295, 44.191263600000049 ], [ 11.9691144, 44.191021600000028 ], [ 11.969095, 44.190573300000032 ], [ 11.9691608, 44.1901115 ], [ 11.9691837, 44.189540100000038 ], [ 11.9690831, 44.189312700000038 ], [ 11.9688673, 44.189094100000055 ], [ 11.9686815, 44.188986800000038 ], [ 11.9677932, 44.188747600000056 ], [ 11.9663214, 44.188299400000041 ], [ 11.9657363, 44.187924 ], [ 11.9655902, 44.187604400000033 ], [ 11.9655375, 44.187260500000022 ], [ 11.9655886, 44.186806700000027 ], [ 11.9657253, 44.186479900000037 ], [ 11.9657118, 44.18611750000003 ], [ 11.9656173, 44.185886200000034 ], [ 11.9654881, 44.185734700000033 ], [ 11.9650572, 44.1855527 ], [ 11.9646799, 44.185443 ], [ 11.9651302, 44.185274100000036 ], [ 11.96572, 44.1848584 ], [ 11.9664534, 44.1842818 ], [ 11.9723983, 44.1759997 ], [ 11.9798879, 44.17084550000002 ], [ 11.9810641, 44.169895700000041 ], [ 11.9815515, 44.169527700000039 ], [ 11.9822247, 44.169084400000017 ], [ 11.9822273, 44.168392800000049 ], [ 11.9857586, 44.1646228 ], [ 11.9860067, 44.163054100000018 ], [ 11.986543, 44.160839199999984 ], [ 11.9868542, 44.1600963 ], [ 11.9871568, 44.159373700000025 ], [ 11.9878607, 44.157959900000037 ], [ 11.9891738, 44.157466300000031 ], [ 11.9904339, 44.157147900000041 ], [ 11.9929102, 44.156684300000045 ], [ 11.9968251, 44.1559513 ], [ 12.0059662, 44.153541300000022 ], [ 12.0071537, 44.141899 ], [ 12.0063286, 44.140978300000022 ], [ 12.005106, 44.139122400000019 ], [ 12.0050021, 44.138778899999984 ], [ 12.0045987, 44.135554800000023 ], [ 12.0051279, 44.135203900000015 ], [ 12.004989, 44.1317897 ], [ 12.0040717, 44.1308751 ], [ 12.0039718, 44.130396400000059 ], [ 12.0039012, 44.129828299999986 ], [ 12.0024975, 44.127960400000013 ], [ 12.0015521, 44.127502 ], [ 12.0017861, 44.127291700000029 ], [ 12.0022099, 44.127056400000029 ], [ 12.0073888, 44.127342400000032 ], [ 12.0084822, 44.127475500000038 ], [ 12.0115332, 44.128241300000013 ], [ 12.0129681, 44.1291757 ], [ 12.0134806, 44.1296663 ], [ 12.0139204, 44.130203900000048 ], [ 12.0154965, 44.132683 ], [ 12.0166006, 44.1344813 ], [ 12.0247608, 44.1388387 ], [ 12.0294846, 44.1381201 ], [ 12.0300888, 44.13815720000003 ], [ 12.0360685, 44.141653400000031 ], [ 12.0421292, 44.145312100000012 ], [ 12.0447127, 44.147187500000015 ], [ 12.0456912, 44.148502400000034 ], [ 12.0468508, 44.150026499999981 ], [ 12.0483279, 44.150439399999989 ], [ 12.0497272, 44.150586800000063 ], [ 12.0524118, 44.150793400000055 ], [ 12.0596344, 44.1500821 ], [ 12.0633166, 44.147806500000023 ], [ 12.0685436, 44.144018700000011 ], [ 12.0717022, 44.145416800000028 ], [ 12.0775988, 44.1435414 ], [ 12.08161, 44.144255600000015 ] ] ] ] } }
]
}
