{
"type": "FeatureCollection",
"name": "forli_hospitals_exposed_mph",
"crs": { "type": "name", "properties": { "name": "urn:ogc:def:crs:OGC:1.3:CRS84" } },
"features": [
{ "type": "Feature", "properties": { "fid": 2, "full_id": "n295030604", "osm_id": "295030604", "osm_type": "node", "amenity": "hospital", "motor_vehicle": null, "foot": null, "bicycle": null, "barrier": null, "access": null, "phone": null, "operator:wikidata": null, "opening_hours": null, "full_name": null, "alt_name": null, "addr:street": null, "addr:postcode": null, "addr:housenumber": null, "addr:city": null, "check_date": "2024-11-05", "operator": "Ospedali Privati Forlì", "name": "Ospedali Privati Forlì \"Villa Igea\"", "healthcare": "hospital" }, "geometry": { "type": "Point", "coordinates": [ 12.0582783, 44.217181300000014 ] } },
{ "type": "Feature", "properties": { "fid": 3, "full_id": "n3273154936", "osm_id": "3273154936", "osm_type": "node", "amenity": "hospital", "motor_vehicle": null, "foot": null, "bicycle": null, "barrier": null, "access": null, "phone": "+39 0543 733 668", "operator:wikidata": "Q3631467", "opening_hours": "Mo-Fr 07:30-12:45; Sa 07:30-12:30", "full_name": "Centro Unico Prenotazioni - Azienda Unità Sanitaria Locale della Romagna", "alt_name": "AUSL Romagna", "addr:street": "Via Cristoforo Colombo", "addr:postcode": "47122", "addr:housenumber": "13", "addr:city": "Forlì", "check_date": null, "operator": "ASL", "name": "Azienda Unità Sanitaria Locale della Romagna", "healthcare": "hospital" }, "geometry": { "type": "Point", "coordinates": [ 12.0508857, 44.22504 ] } }
]
}
